OBJECT_NAME,OBJECT_ID,EPOCH,MEAN_MOTION,ECCENTRICITY,INCLINATION,RA_OF_ASC_NODE,ARG_OF_PERICENTER,MEAN_ANOMALY,EPHEMERIS_TYPE,CLASSIFICATION_TYPE,NORAD_CAT_ID,ELEMENT_SET_NO,REV_AT_EPOCH,BSTAR,MEAN_MOTION_DOT,MEAN_MOTION_DDOT
STARLINK-2180,2021-017AS,2026-07-19T15:11:58.288992,15.81531590,.0004446,53.1522,292.3938,347.4718,12.6194,0,U,47762,999,29832,.47918E-3,.97954E-3,0
STARLINK-2185,2021-017AX,2026-07-19T21:05:14.718048,15.75581352,.0003632,53.1504,290.8721,11.6136,348.4968,0,U,47767,999,29839,.49878E-3,.77704E-3,0
STARLINK-2193,2021-017BA,2026-07-19T17:05:55.718016,15.31698087,.0000825,53.1601,309.6219,78.6351,281.4743,0,U,47770,999,29809,.12418E-4,.21E-6,0
STARLINK-2194,2021-017BB,2026-07-19T17:12:37.953216,15.31701398,.0001134,53.1601,309.5319,78.7419,281.3710,0,U,47771,999,29810,.41732E-4,.93E-5,0
STARLINK-2195,2021-017BC,2026-07-19T11:41:34.648512,15.31708753,.00011013,53.1613,324.0575,82.4918,277.6208,0,U,47772,999,29785,.44941066E-4,.103E-4,0
STARLINK-2196,2021-017BD,2026-07-19T18:04:01.841376,15.31701947,.0001116,53.1604,322.2488,81.4846,278.6282,0,U,47773,999,29789,.13776E-4,.62E-6,0
STARLINK-2209,2021-017BG,2026-07-19T22:00:00.999072,15.84543632,.0005226,53.1493,284.0911,5.4804,184.0658,0,U,47776,999,600,-.13247E-3,-.31743E-3,0
STARLINK-2211,2021-017BJ,2026-07-19T16:32:18.254688,15.55125037,.0001704,53.1536,296.2965,28.2024,331.9079,0,U,47778,999,29827,.19413E-2,.1349E-2,0
STARLINK-2213,2021-017BL,2026-07-19T18:06:19.309824,15.31694662,.0001012,53.1605,309.3407,76.6957,283.4157,0,U,47780,999,29813,-.91621E-5,-.649E-5,0
STARLINK-2257,2021-018A,2026-07-19T20:35:24.421056,15.31695317,.0000841,53.1582,350.7247,86.6893,273.4205,0,U,47787,999,29693,.11514E-4,-.8E-7,0
STARLINK-2314,2021-018B,2026-07-19T17:10:08.061312,15.42965394,.0000446,53.1550,320.4813,87.5644,272.5413,0,U,47788,999,29736,.73041E-3,.32377E-3,0
STARLINK-2315,2021-018C,2026-07-19T18:39:06.699168,15.31694890,.0000754,53.1605,344.7132,88.3897,271.7190,0,U,47789,999,29700,.64011E-5,-.166E-5,0
STARLINK-2319,2021-018D,2026-07-19T16:03:12.990240,15.31695179,.0000971,53.1605,322.5942,86.5280,273.5832,0,U,47790,999,29732,.44302E-4,.101E-4,0
STARLINK-2322,2021-018E,2026-07-19T18:27:20.583072,15.31704178,.0001271,53.1622,348.3621,74.0949,286.0193,0,U,47791,999,29697,.24696E-4,.401E-5,0
STARLINK-2334,2021-018F,2026-07-19T18:25:41.755296,15.31580940,.0002497,53.1599,344.5889,87.5449,272.5838,0,U,47792,999,29700,.74742E-3,.22814E-3,0
STARLINK-2338,2021-018G,2026-07-19T18:45:47.386080,15.31694931,.0001255,53.1605,344.5213,92.4418,267.6727,0,U,47793,999,29699,.38145E-4,.819E-5,0
STARLINK-2373,2021-018K,2026-07-19T18:58:03.241920,15.37157881,.000058,53.1576,343.0730,298.2063,61.8882,0,U,47796,999,29702,.77199E-3,.28213E-3,0
STARLINK-2377,2021-018L,2026-07-19T17:37:59.740608,15.31699621,.0001177,53.1635,0.9896,89.6830,270.4306,0,U,47797,999,29677,.25038E-4,.412E-5,0
STARLINK-2379,2021-018M,2026-07-19T19:12:36.066816,15.31724917,.00005,53.1596,344.4385,133.6030,226.5013,0,U,47798,999,29700,.21244E-3,.6238E-4,0
STARLINK-2380,2021-018N,2026-07-19T16:29:14.277120,15.31695981,.0000855,53.1596,337.9655,78.7575,281.3522,0,U,47799,999,29708,-.72334E-5,-.589E-5,0
STARLINK-2381,2021-018P,2026-07-19T16:18:07.653600,15.31709555,.0001127,53.1617,344.9149,73.4843,286.6282,0,U,47800,999,29698,.30144E-3,.9003E-4,0
STARLINK-2383,2021-018R,2026-07-19T18:51:54.628416,15.31702354,.0001002,53.1619,1.2183,77.2859,282.8254,0,U,47802,999,29678,.4064E-4,.896E-5,0
STARLINK-2385,2021-018T,2026-07-19T19:09:55.956384,15.31700707,.0001232,53.1578,335.4791,98.5428,261.5713,0,U,47804,999,29713,.11849E-5,-.328E-5,0
STARLINK-2386,2021-018U,2026-07-19T19:39:50.859360,15.25135795,.000174,53.0877,349.0969,222.0683,138.0181,0,U,47805,999,29693,.81499E-3,.20404E-3,0
STARLINK-2387,2021-018V,2026-07-19T17:47:05.309952,15.31701983,.0000731,53.1619,348.5485,89.4022,270.7063,0,U,47806,999,29701,.41596E-4,.926E-5,0
STARLINK-2388,2021-018W,2026-07-19T08:20:07.835424,15.31697441,.00012806,53.1589,324.1027,72.1720,287.9421,0,U,47807,999,29725,.61743225E-4,.1551E-4,0
STARLINK-2389,2021-018X,2026-07-19T17:33:07.498656,15.31698804,.0001135,53.1607,348.2590,72.9559,287.1567,0,U,47808,999,29701,-.69293E-6,-.387E-5,0
STARLINK-2391,2021-018Z,2026-07-19T19:52:17.190336,15.31718153,.0001048,53.1618,0.8762,89.8603,270.2518,0,U,47810,999,29684,-.12954E-3,-.4385E-4,0
STARLINK-2395,2021-018AD,2026-07-19T19:41:09.032352,15.31702796,.0000984,53.1607,348.0186,77.7583,282.3529,0,U,47814,999,29703,.58937E-4,.1464E-4,0
STARLINK-2396,2021-018AE,2026-07-19T16:26:29.211648,15.31704990,.0001276,53.1603,348.5190,87.7902,272.3246,0,U,47815,999,29694,.64089E-4,.1624E-4,0
STARLINK-2399,2021-018AF,2026-07-19T16:38:37.398624,15.31698011,.0001094,53.1617,3.9777,98.1324,261.9801,0,U,47816,999,29671,.48908E-4,.1153E-4,0
STARLINK-2400,2021-018AG,2026-07-19T18:40:47.628192,15.31709936,.0000822,53.1625,348.5213,100.8103,259.2991,0,U,47817,999,29695,.47333E-4,.1105E-4,0
STARLINK-2401,2021-018AH,2026-07-19T20:54:15.436800,15.82003926,.0004667,53.0438,332.7839,330.7778,29.2982,0,U,47818,999,29715,.56207E-3,.117879E-2,0
STARLINK-2402,2021-018AJ,2026-07-19T18:34:04.700928,15.31702531,.0001172,53.1614,348.4570,96.8195,263.2940,0,U,47819,999,29702,.12769E-4,.31E-6,0
STARLINK-2406,2021-018AL,2026-07-19T20:21:26.310816,15.31699200,.0000735,53.1612,347.9810,96.6426,263.4659,0,U,47821,999,29697,.17985E-4,.193E-5,0
STARLINK-2407,2021-018AM,2026-07-19T16:57:42.386976,15.31700720,.0001224,53.1620,1.0174,85.7564,274.3578,0,U,47822,999,29678,.43033E-4,.97E-5,0
STARLINK-2408,2021-018AN,2026-07-19T19:39:48.434976,15.31699344,.0001161,53.1616,3.2630,95.4380,264.6754,0,U,47823,999,29674,.30646E-4,.586E-5,0
STARLINK-2409,2021-018AP,2026-07-19T20:53:16.190592,15.31704996,.0001102,53.1619,3.6902,98.1400,261.9726,0,U,47824,999,29673,.26384E-4,.454E-5,0
STARLINK-2410,2021-018AQ,2026-07-19T16:19:48.155808,15.31705293,.0001453,53.1615,348.6900,78.7637,281.3527,0,U,47825,999,29695,.50472E-4,.1201E-4,0
STARLINK-2411,2021-018AR,2026-07-19T19:08:05.726400,15.31696909,.0001041,53.1615,350.6934,81.1260,278.9859,0,U,47826,999,29693,.34356E-4,.701E-5,0
STARLINK-2413,2021-018AS,2026-07-19T16:39:25.233120,15.31701764,.0000931,53.1624,348.3811,73.4096,286.7007,0,U,47827,999,29700,.50393E-4,.1199E-4,0
STARLINK-2415,2021-018AT,2026-07-19T17:04:25.301280,15.31700233,.0001189,53.1609,1.0092,80.6604,279.4531,0,U,47828,999,29678,.50959E-4,.1216E-4,0
STARLINK-2419,2021-018AV,2026-07-19T19:45:33.867360,15.31695943,.0000961,53.1611,0.8056,103.8657,256.2452,0,U,47830,999,29678,.82454E-4,.2194E-4,0
STARLINK-2420,2021-018AW,2026-07-19T18:53:40.567776,15.31693806,.000115,53.1607,348.0480,93.9793,266.1340,0,U,47831,999,29700,.22382E-4,.329E-5,0
STARLINK-2422,2021-018AX,2026-07-19T17:20:46.680000,15.31700510,.0001201,53.1602,351.3624,84.0804,276.0334,0,U,47832,999,29691,.80689E-4,.214E-4,0
STARLINK-2423,2021-018AY,2026-07-19T19:51:56.194272,15.31690536,.0001176,53.1605,1.4779,74.9985,285.1147,0,U,47833,999,29682,.18544E-4,.21E-5,0
STARLINK-2424,2021-018AZ,2026-07-19T19:48:17.525376,15.31705184,.0001027,53.1599,350.2286,78.7047,281.4070,0,U,47834,999,29699,.86653E-4,.2325E-4,0
STARLINK-2426,2021-018BB,2026-07-19T16:47:04.479360,15.31700927,.0001322,53.1615,350.7644,80.8620,279.2531,0,U,47836,999,29692,.22233E-4,.325E-5,0
STARLINK-2427,2021-018BC,2026-07-19T16:18:28.382688,15.31802810,.0001339,53.1634,344.8808,192.3201,167.7768,0,U,47837,999,29699,.49261E-3,.15001E-3,0
STARLINK-2429,2021-018BD,2026-07-19T19:14:49.026912,15.31745983,.0000773,53.1623,351.0332,58.3471,301.7605,0,U,47838,999,29692,.22127E-3,.6517E-4,0
STARLINK-2431,2021-018BE,2026-07-19T15:02:51.988704,15.31700755,.0001119,53.1592,323.0639,75.2600,284.8525,0,U,47839,999,29731,.26212E-4,.448E-5,0
STARLINK-2432,2021-018BF,2026-07-19T16:24:52.148160,15.31700899,.0000778,53.1611,345.0529,81.0857,279.0233,0,U,47840,999,29698,.96601E-4,.2634E-4,0
STARLINK-2433,2021-018BG,2026-07-19T15:57:59.199264,15.31699852,.0001348,53.1604,344.9858,86.0874,274.0282,0,U,47841,999,29698,.31103E-4,.6E-5,0
STARLINK-2435,2021-018BJ,2026-07-19T17:31:16.066848,15.31699537,.0001117,53.1625,0.9167,79.3923,280.7204,0,U,47843,999,29679,.40965E-4,.906E-5,0
STARLINK-2446,2021-018BK,2026-07-19T17:03:28.349856,15.34647447,.0002535,53.1594,351.2100,297.4543,62.6202,0,U,47844,999,29691,.751E-3,.25284E-3,0
STARLINK-2453,2021-018BL,2026-07-19T20:33:07.300800,15.31700234,.0001203,53.1612,3.6610,70.5486,289.5645,0,U,47845,999,29674,.44492E-4,.1016E-4,0
SHIYAN-9 (SY-9),2021-019A,2026-07-19T14:16:38.631648,1.00263701,.0013735,16.4557,302.0227,25.8429,330.1061,0,U,47851,999,2445,0,-.243E-5,0
YAOGAN-31 04A,2021-020A,2026-07-19T20:41:44.217312,13.45449759,.0177916,63.4041,174.0243,0.5172,359.6006,0,U,47854,999,26286,.63274E-4,-.49E-6,0
YAOGAN-31 04B,2021-020C,2026-07-19T20:42:00.724032,13.45449852,.0177627,63.4036,174.8128,0.6050,359.5159,0,U,47856,999,26280,.58902E-4,-.52E-6,0
YAOGAN-31 04C,2021-020D,2026-07-19T20:42:04.280256,13.45450569,.0177692,63.4047,174.1078,0.4444,359.6708,0,U,47857,999,26285,.46656E-4,-.6E-6,0
STARLINK-2280,2021-021B,2026-07-19T17:11:42.931104,15.31700036,.0001366,53.1615,4.0038,82.6305,277.4851,0,U,47861,999,29662,.12683E-4,.28E-6,0
STARLINK-2291,2021-021C,2026-07-19T20:30:14.304672,15.80552105,.0002159,53.1559,343.3302,340.1657,19.9282,0,U,47862,999,29691,.58448E-3,.114497E-2,0
STARLINK-2326,2021-021L,2026-07-19T18:47:12.437376,15.31700976,.0001142,53.1610,26.3574,89.1652,270.9480,0,U,47870,999,29620,.50914E-4,.1215E-4,0
STARLINK-2329,2021-021P,2026-07-19T19:38:48.977952,15.31696391,.000115,53.1620,0.6326,87.8754,272.2379,0,U,47873,999,29666,.28401E-4,.516E-5,0
STARLINK-2330,2021-021Q,2026-07-19T16:56:28.385376,15.40679637,.0000652,53.1430,319.0800,201.9794,158.1184,0,U,47874,999,29723,.69722E-3,.28585E-3,0
STARLINK-2336,2021-021V,2026-07-19T20:13:38.726112,15.80866682,.0002626,53.1529,4.8792,303.5247,56.5524,0,U,47879,999,29678,.5622E-3,.111687E-2,0
